OBJECT_NAME,OBJECT_ID,EPOCH,MEAN_MOTION,ECCENTRICITY,INCLINATION,RA_OF_ASC_NODE,ARG_OF_PERICENTER,MEAN_ANOMALY,EPHEMERIS_TYPE,CLASSIFICATION_TYPE,NORAD_CAT_ID,ELEMENT_SET_NO,REV_AT_EPOCH,BSTAR,MEAN_MOTION_DOT,MEAN_MOTION_DDOT
COSMOS 2531 (RODNIK-S 17),2018-097B,2026-06-19T21:27:53.067744,12.42914462,.00176207,82.5176,221.6602,52.8408,307.4278,0,U,43752,999,34264,.20251785E-1,.2817E-4,0
COSMOS 2532 (RODNIK-S 18),2018-097C,2026-06-19T22:08:36.568608,12.42910226,.00190124,82.5121,220.4274,54.5762,305.7090,0,U,43753,999,34261,.48323138E-3,.77E-6,0
MINXSS-2,2018-099A,2026-06-19T17:51:09.922176,15.47043067,.00068585,97.4528,247.1034,244.2131,115.8411,0,U,43758,999,41452,.61703135E-3,.3121E-3,0
SIRION PATHFINDER-2,2018-099B,2026-06-19T16:36:57.825216,15.14565833,.00071576,97.4247,219.6903,293.9955,66.0528,0,U,43759,999,41300,.22349746E-3,.4059E-4,0
AISTECHSAT 2,2018-099L,2026-06-19T14:21:12.584448,15.15469715,.0003043,97.4289,218.5794,297.7742,62.3182,0,U,43768,999,41264,.23293885E-3,.4342E-4,0
FOX-1CLIFF (AO-95),2018-099N,2026-06-19T16:47:03.147936,15.26755639,.00077084,97.4377,230.9364,348.2880,11.8178,0,U,43770,999,41360,.35594986E-3,.93E-4,0
RANGE-A,2018-099R,2026-06-19T16:34:20.728416,15.13405233,.00095515,97.3959,213.1965,348.1255,11.9749,0,U,43773,999,41287,.17709328E-3,.3101E-4,0
SNUSAT-2,2018-099AA,2026-06-19T02:36:23.083200,15.21860979,.00085565,97.4055,223.4630,290.4235,69.6082,0,U,43782,999,41332,.28361379E-3,.6386E-4,0
SNUGLITE,2018-099AC,2026-06-19T15:12:13.990464,15.27222356,.00011959,97.3861,224.8895,268.1327,91.9775,0,U,43784,999,41369,.35841832E-3,.9492E-4,0
ITASAT,2018-099AE,2026-06-19T15:45:25.323840,15.19082149,.00118276,97.4023,222.1190,351.5334,8.5699,0,U,43786,999,41328,.23742617E-3,.4921E-4,0
EAGLET-I,2018-099AJ,2026-06-19T16:45:36.770400,15.12954488,.00104083,97.4228,220.3006,345.2076,14.8849,0,U,43790,999,41271,.1841425E-3,.3186E-4,0
ESEO,2018-099AL,2026-06-19T15:23:51.416448,15.04256096,.00110181,97.3977,207.9246,331.8257,28.2372,0,U,43792,999,41217,.1065964E-3,.1426E-4,0
THEA,2018-099AQ,2026-06-19T17:51:56.306880,15.35084249,.00059245,97.4435,240.4614,270.8927,89.1637,0,U,43796,999,41308,.43860105E-3,.1487E-3,0
ASTROCAST 0.1,2018-099AS,2026-06-19T17:09:54.869760,15.49684244,.00053395,97.4363,249.2916,195.9353,164.1731,0,U,43798,999,41482,.55027256E-3,.30491E-3,0
JY1SAT (JO-97),2018-099AX,2026-06-19T16:55:58.418400,15.33718827,.00044921,97.4125,233.5484,250.8022,109.2735,0,U,43803,999,41401,.42740469E-3,.13869E-3,0
SUOMI-100,2018-099AY,2026-06-19T16:39:26.519616,15.28463082,.00084344,97.4181,231.0783,267.8657,92.1617,0,U,43804,999,41380,.36555925E-3,.10066E-3,0
CENTAURI-1,2018-099BD,2026-06-19T17:07:37.444512,15.16385455,.00128305,97.4214,222.3792,324.2306,35.8066,0,U,43809,999,41288,.20546223E-3,.393E-4,0
GLOBAL-2,2018-099BG,2026-06-19T14:17:05.048448,15.08681703,.000706,97.3550,207.0086,136.3141,223.8648,0,U,43812,999,41227,.16912697E-3,.2592E-4,0
SEAHAWK-1,2018-099BQ,2026-06-19T16:46:30.048096,15.22840885,.00066114,97.3950,223.1462,304.4016,55.6595,0,U,43820,999,41291,.31023521E-3,.7196E-4,0
SAUDISAT 5A,2018-102A,2026-06-19T23:32:09.842208,15.28071871,.00111611,97.3062,232.5080,120.5146,239.7197,0,U,43831,999,41610,.16820772E-3,.4539E-4,0
SAUDISAT 5B,2018-102C,2026-06-19T22:24:20.642400,15.28326781,.00118435,97.3172,235.5365,122.7811,237.4571,0,U,43833,999,41621,.15568455E-3,.4229E-4,0
ISAT,2018-111D,2026-06-19T18:47:26.350368,15.65705151,.00016148,97.5873,106.2041,158.5433,201.5894,0,U,43879,999,41157,.82127114E-3,.83382E-3,0
UWE-4,2018-111E,2026-06-19T17:44:17.410560,15.46259003,.00050679,97.5852,99.2477,330.7950,29.3015,0,U,43880,999,41117,.56934495E-3,.28E-3,0
D-STAR ONE (SPARROW),2018-111F,2026-06-19T19:11:52.255968,15.75150349,.00046107,97.6106,111.8883,117.7107,242.4625,0,U,43881,999,41178,.9641951E-3,.145998E-2,0
JILIN-1 09,2019-005B,2026-06-19T22:39:20.910528,15.20534217,.0003774,97.4739,265.8831,89.4934,270.6734,0,U,43943,999,40956,.18547486E-3,.3988E-4,0
JILIN-1 10,2019-005E,2026-06-19T22:43:15.666240,15.25746667,.0006583,97.4785,269.7510,266.9399,93.1085,0,U,43946,999,40973,.18955528E-3,.4765E-4,0
EGYPTSAT-A (MISRSAT-A),2019-008A,2026-06-19T22:18:42.873696,14.72308619,.00013532,98.0188,235.6536,100.4362,259.6998,0,U,44047,999,39364,-.242568E-5,-.65E-6,0
EMISAT,2019-018A,2026-06-19T21:59:56.776704,14.43687572,.00178779,98.4640,229.7026,206.0697,153.9594,0,U,44078,999,38045,.8778123E-5,-.14E-6,0
