COSMOS 2531 (RODNIK-S *)
1 43752U 18097B   26170.89436421  .00002817  00000+0  20252-1 0  9998
2 43752  82.5176 221.6602 0017620  52.8408 307.4278 12.42914462342649
COSMOS 2532 (RODNIK-S *)
1 43753U 18097C   26170.92264547  .00000077  00000+0  48323-3 0  9998
2 43753  82.5121 220.4274 0019012  54.5762 305.7090 12.42910226342615
MINXSS-2                
1 43758U 18099A   26170.74386484  .00031210  00000+0  61703-3 0  9990
2 43758  97.4528 247.1034 0006858 244.2131 115.8411 15.47043067414523
SIRION PATHFINDER-2     
1 43759U 18099B   26170.69233594  .00004059  00000+0  22350-3 0  9994
2 43759  97.4247 219.6903 0007157 293.9955  66.0528 15.14565833413001
AISTECHSAT 2            
1 43768U 18099L   26170.59806232  .00004342  00000+0  23294-3 0  9991
2 43768  97.4289 218.5794 0003043 297.7742  62.3182 15.15469715412646
FOX-1CLIFF (AO-95)      
1 43770U 18099N   26170.69934199  .00009300  00000+0  35595-3 0  9995
2 43770  97.4377 230.9364 0007708 348.2880  11.8178 15.26755639413601
RANGE-A                 
1 43773U 18099R   26170.69051769  .00003101  00000+0  17709-3 0  9991
2 43773  97.3959 213.1965 0009551 348.1255  11.9749 15.13405233412873
SNUSAT-2                
1 43782U 18099AA  26170.10860050  .00006386  00000+0  28361-3 0  9992
2 43782  97.4055 223.4630 0008556 290.4235  69.6082 15.21860979413327
SNUGLITE                
1 43784U 18099AC  26170.63349526  .00009492  00000+0  35842-3 0  9995
2 43784  97.3861 224.8895 0001195 268.1327  91.9775 15.27222356413691
ITASAT                  
1 43786U 18099AE  26170.65654310  .00004921  00000+0  23743-3 0  9998
2 43786  97.4023 222.1190 0011827 351.5334   8.5699 15.19082149413280
EAGLET-I                
1 43790U 18099AJ  26170.69834225  .00003186  00000+0  18414-3 0  9993
2 43790  97.4228 220.3006 0010408 345.2076  14.8849 15.12954488412716
ESEO                    
1 43792U 18099AL  26170.64156732  .00001426  00000+0  10660-3 0  9990
2 43792  97.3977 207.9246 0011018 331.8257  28.2372 15.04256096412176
THEA                    
1 43796U 18099AQ  26170.74440170  .00014870  00000+0  43860-3 0  9992
2 43796  97.4435 240.4614 0005924 270.8927  89.1637 15.35084249413080
ASTROCAST 0.1           
1 43798U 18099AS  26170.71521840  .00030491  00000+0  55027-3 0  9990
2 43798  97.4363 249.2916 0005339 195.9353 164.1731 15.49684244414822
JY1SAT (JO-97)          
1 43803U 18099AX  26170.70553725  .00013869  00000+0  42740-3 0  9991
2 43803  97.4125 233.5484 0004492 250.8022 109.2735 15.33718827414017
SUOMI-100               
1 43804U 18099AY  26170.69405694  .00010066  00000+0  36556-3 0  9995
2 43804  97.4181 231.0783 0008434 267.8657  92.1617 15.28463082413806
CENTAURI-1              
1 43809U 18099BD  26170.71362783  .00003930  00000+0  20546-3 0  9998
2 43809  97.4214 222.3792 0012830 324.2306  35.8066 15.16385455412888
GLOBAL-2                
1 43812U 18099BG  26170.59519732  .00002592  00000+0  16913-3 0  9992
2 43812  97.3550 207.0086 0007060 136.3141 223.8648 15.08681703412272
SEAHAWK-1               
1 43820U 18099BQ  26170.69895889  .00007196  00000+0  31024-3 0  9997
2 43820  97.3950 223.1462 0006611 304.4016  55.6595 15.22840885412919
SAUDISAT 5A             
1 43831U 18102A   26170.98066947  .00004539  00000+0  16821-3 0  9997
2 43831  97.3062 232.5080 0011161 120.5146 239.7197 15.28071871416107
SAUDISAT 5B             
1 43833U 18102C   26170.93357225  .00004229  00000+0  15568-3 0  9999
2 43833  97.3172 235.5365 0011843 122.7811 237.4571 15.28326781416216
ISAT                    
1 43879U 18111D   26170.78294387  .00083382  00000+0  82127-3 0  9993
2 43879  97.5873 106.2041 0001614 158.5433 201.5894 15.65705151411570
UWE-4                   
1 43880U 18111E   26170.73909040  .00028000  00000+0  56934-3 0  9992
2 43880  97.5852  99.2477 0005067 330.7950  29.3015 15.46259003411173
D-STAR ONE (SPARROW)    
1 43881U 18111F   26170.79991037  .00145998  00000+0  96420-3 0  9996
2 43881  97.6106 111.8883 0004610 117.7107 242.4625 15.75150349411786
JILIN-1 09              
1 43943U 19005B   26170.94399202  .00003988  00000+0  18547-3 0  9997
2 43943  97.4739 265.8831 0003774  89.4934 270.6734 15.20534217409568
JILIN-1 10              
1 43946U 19005E   26170.94670910  .00004765  00000+0  18956-3 0  9996
2 43946  97.4785 269.7510 0006583 266.9399  93.1085 15.25746667409732
EGYPTSAT-A (MISRSAT-A)  
1 44047U 19008A   26170.92966289 -.00000065  00000+0 -24257-5 0  9991
2 44047  98.0188 235.6536 0001353 100.4362 259.6998 14.72308619393647
EMISAT                  
1 44078U 19018A   26170.91662936 -.00000014  00000+0  87781-5 0  9991
2 44078  98.4640 229.7026 0017877 206.0697 153.9594 14.43687572380457
